{
  "type": "FeatureCollection",
  "features": [
    {
      "type": "Feature",
      "properties": {
        "norad_id": 66174,
        "name": "HTV-X1",
        "group": "stations",
        "lat": -51.454215849626074,
        "lon": -15.138810244611907,
        "alt_km": 420.09368246158374,
        "timestamp": "2025-12-25T03:55:54.991415+00:00",
        "meta_object_name": "HTV-X1",
        "meta_object_id": "2025-241A",
        "meta_epoch": "2025-12-24T05:07:18.077088",
        "meta_mean_motion": 15.49773492,
        "meta_eccentricity": 0.00031703,
        "meta_inclination": 51.6319,
        "meta_ra_of_asc_node": 85.6574,
        "meta_arg_of_pericenter": 294.284,
        "meta_mean_anomaly": 65.7818,
        "meta_ephemeris_type": 0,
        "meta_classification_type": "U",
        "meta_norad_cat_id": 66174,
        "meta_element_set_no": 999,
        "meta_rev_at_epoch": 51,
        "meta_bstar": 0.00022737508,
        "meta_mean_motion_dot": 0.0001244,
        "meta_mean_motion_ddot": 0,
        "tle_line1": "1 66174U 25241A   25358.21340367  .00012440  00000+0  22738-3 0  9992",
        "tle_line2": "2 66174  51.6319  85.6574 0003170 294.2840  65.7818 15.49773492   518"
      },
      "geometry": {
        "type": "Point",
        "coordinates": [
          -15.138810244611907,
          -51.454215849626074
        ]
      }
    },
    {
      "type": "Feature",
      "properties": {
        "norad_id": 66515,
        "name": "SZ-21 MODULE",
        "group": "stations",
        "lat": -12.927941622278333,
        "lon": 135.28182630181252,
        "alt_km": 381.7067923060804,
        "timestamp": "2025-12-25T03:55:54.991425+00:00",
        "meta_object_name": "SZ-21 MODULE",
        "meta_object_id": "2025-246C",
        "meta_epoch": "2025-12-24T13:16:51.561984",
        "meta_mean_motion": 15.63097156,
        "meta_eccentricity": 0.0004724,
        "meta_inclination": 41.4769,
        "meta_ra_of_asc_node": 303.9494,
        "meta_arg_of_pericenter": 323.7646,
        "meta_mean_anomaly": 36.2873,
        "meta_ephemeris_type": 0,
        "meta_classification_type": "U",
        "meta_norad_cat_id": 66515,
        "meta_element_set_no": 999,
        "meta_rev_at_epoch": 629,
        "meta_bstar": 0.00031177,
        "meta_mean_motion_dot": 0.0002901,
        "meta_mean_motion_ddot": 0,
        "tle_line1": "1 66515U 25246C   25358.55337456  .00029010  00000+0  31177-3 0  9996",
        "tle_line2": "2 66515  41.4769 303.9494 0004724 323.7646  36.2873 15.63097156  6295"
      },
      "geometry": {
        "type": "Point",
        "coordinates": [
          135.28182630181252,
          -12.927941622278333
        ]
      }
    },
    {
      "type": "Feature",
      "properties": {
        "norad_id": 66645,
        "name": "SHENZHOU-22",
        "group": "stations",
        "lat": 24.96452415623101,
        "lon": 89.43605148491059,
        "alt_km": 379.01209962425037,
        "timestamp": "2025-12-25T03:55:54.991436+00:00",
        "meta_object_name": "SHENZHOU-22",
        "meta_object_id": "2025-272A",
        "meta_epoch": "2025-12-24T05:49:05.894976",
        "meta_mean_motion": 15.59630763,
        "meta_eccentricity": 0.00081096,
        "meta_inclination": 41.4687,
        "meta_ra_of_asc_node": 306.8504,
        "meta_arg_of_pericenter": 132.6319,
        "meta_mean_anomaly": 227.5205,
        "meta_ephemeris_type": 0,
        "meta_classification_type": "U",
        "meta_norad_cat_id": 66645,
        "meta_element_set_no": 999,
        "meta_rev_at_epoch": 26550,
        "meta_bstar": 0.00022952509,
        "meta_mean_motion_dot": 0.00018555,
        "meta_mean_motion_ddot": 0,
        "tle_line1": "1 66645U 25272A   25358.24242934  .00018555  00000+0  22953-3 0  9995",
        "tle_line2": "2 66645  41.4687 306.8504 0008109 132.6319 227.5205 15.59630763265504"
      },
      "geometry": {
        "type": "Point",
        "coordinates": [
          89.43605148491059,
          24.96452415623101
        ]
      }
    },
    {
      "type": "Feature",
      "properties": {
        "norad_id": 66664,
        "name": "SOYUZ-MS 28",
        "group": "stations",
        "lat": -51.454467353823574,
        "lon": -15.131323454049008,
        "alt_km": 420.08376271330417,
        "timestamp": "2025-12-25T03:55:54.991446+00:00",
        "meta_object_name": "SOYUZ-MS 28",
        "meta_object_id": "2025-275A",
        "meta_epoch": "2025-12-24T12:51:34.606944",
        "meta_mean_motion": 15.49782856,
        "meta_eccentricity": 0.0003183,
        "meta_inclination": 51.6318,
        "meta_ra_of_asc_node": 84.0604,
        "meta_arg_of_pericenter": 295.6588,
        "meta_mean_anomaly": 64.4071,
        "meta_ephemeris_type": 0,
        "meta_classification_type": "U",
        "meta_norad_cat_id": 66664,
        "meta_element_set_no": 999,
        "meta_rev_at_epoch": 427,
        "meta_bstar": 0.00023993,
        "meta_mean_motion_dot": 0.00013157,
        "meta_mean_motion_ddot": 0,
        "tle_line1": "1 66664U 25275A   25358.53581721  .00013157  00000+0  23993-3 0  9999",
        "tle_line2": "2 66664  51.6318  84.0604 0003183 295.6588  64.4071 15.49782856  4274"
      },
      "geometry": {
        "type": "Point",
        "coordinates": [
          -15.131323454049008,
          -51.454467353823574
        ]
      }
    },
    {
      "type": "Feature",
      "properties": {
        "norad_id": 66906,
        "name": "1998-067XS",
        "group": "stations",
        "lat": -7.164935205333869,
        "lon": 75.05533928764308,
        "alt_km": 414.6939386446538,
        "timestamp": "2025-12-25T03:55:54.991458+00:00",
        "meta_object_name": "1998-067XS",
        "meta_object_id": "1998-067XS",
        "meta_epoch": "2025-12-23T13:19:00.111360",
        "meta_mean_motion": 15.51136039,
        "meta_eccentricity": 0.00028154,
        "meta_inclination": 51.6316,
        "meta_ra_of_asc_node": 88.7613,
        "meta_arg_of_pericenter": 256.8779,
        "meta_mean_anomaly": 103.1896,
        "meta_ephemeris_type": 0,
        "meta_classification_type": "U",
        "meta_norad_cat_id": 66906,
        "meta_element_set_no": 999,
        "meta_rev_at_epoch": 329,
        "meta_bstar": 0.00048512679,
        "meta_mean_motion_dot": 0.0002847,
        "meta_mean_motion_ddot": 0,
        "tle_line1": "1 66906U 98067XS  25357.55486240  .00028470  00000+0  48513-3 0  9997",
        "tle_line2": "2 66906  51.6316  88.7613 0002815 256.8779 103.1896 15.51136039  3290"
      },
      "geometry": {
        "type": "Point",
        "coordinates": [
          75.05533928764308,
          -7.164935205333869
        ]
      }
    },
    {
      "type": "Feature",
      "properties": {
        "norad_id": 66907,
        "name": "1998-067XT",
        "group": "stations",
        "lat": 45.125036728672804,
        "lon": 133.34134979274145,
        "alt_km": 403.4597435376563,
        "timestamp": "2025-12-25T03:55:54.991469+00:00",
        "meta_object_name": "1998-067XT",
        "meta_object_id": "1998-067XT",
        "meta_epoch": "2025-12-23T11:29:49.841376",
        "meta_mean_motion": 15.52745506,
        "meta_eccentricity": 0.0003882,
        "meta_inclination": 51.6313,
        "meta_ra_of_asc_node": 89.0045,
        "meta_arg_of_pericenter": 291.7662,
        "meta_mean_anomaly": 68.2915,
        "meta_ephemeris_type": 0,
        "meta_classification_type": "U",
        "meta_norad_cat_id": 66907,
        "meta_element_set_no": 999,
        "meta_rev_at_epoch": 328,
        "meta_bstar": 0.0010348952,
        "meta_mean_motion_dot": 0.00065231,
        "meta_mean_motion_ddot": 0,
        "tle_line1": "1 66907U 98067XT  25357.47904909  .00065231  00000+0  10349-2 0  9997",
        "tle_line2": "2 66907  51.6313  89.0045 0003882 291.7662  68.2915 15.52745506  3283"
      },
      "geometry": {
        "type": "Point",
        "coordinates": [
          133.34134979274145,
          45.125036728672804
        ]
      }
    },
    {
      "type": "Feature",
      "properties": {
        "norad_id": 66908,
        "name": "1998-067XU",
        "group": "stations",
        "lat": 47.749536268187946,
        "lon": 141.32001506301148,
        "alt_km": 403.08958580143826,
        "timestamp": "2025-12-25T03:55:54.991479+00:00",
        "meta_object_name": "1998-067XU",
        "meta_object_id": "1998-067XU",
        "meta_epoch": "2025-12-23T11:28:24.726144",
        "meta_mean_motion": 15.52842233,
        "meta_eccentricity": 0.00039209,
        "meta_inclination": 51.6312,
        "meta_ra_of_asc_node": 88.9976,
        "meta_arg_of_pericenter": 289.9814,
        "meta_mean_anomaly": 70.0754,
        "meta_ephemeris_type": 0,
        "meta_classification_type": "U",
        "meta_norad_cat_id": 66908,
        "meta_element_set_no": 999,
        "meta_rev_at_epoch": 328,
        "meta_bstar": 0.0010206619,
        "meta_mean_motion_dot": 0.00064549,
        "meta_mean_motion_ddot": 0,
        "tle_line1": "1 66908U 98067XU  25357.47806396  .00064549  00000+0  10207-2 0  9993",
        "tle_line2": "2 66908  51.6312  88.9976 0003920 289.9814  70.0754 15.52842233  3282"
      },
      "geometry": {
        "type": "Point",
        "coordinates": [
          141.32001506301148,
          47.749536268187946
        ]
      }
    }
  ]
}